3CAT-5A                 
1 46292U 20061W   25186.59853711  .00008925  00000+0  26989-3 0  9993
2 46292  97.2936 246.8541 0000862 329.1955  30.9238 15.34440408267688
3CAT-5B                 
1 46293U 20061X   25186.39573974  .00010421  00000+0  30974-3 0  9995
2 46293  97.2942 247.1459 0000862 327.3547  32.7643 15.34939222267659
OSM-1 CICERO            
1 46294U 20061Y   25186.20009166  .00151469  00000+0  81833-3 0  9991
2 46294  97.3085 264.2046 0003943 201.9979 158.1120 15.79690066268765
NAPA-1                  
1 46320U 20061BA  25186.58911411  .00008840  00000+0  21317-3 0  9992
2 46320  97.2993 251.7826 0001666 130.6566 229.4826 15.41459854267995
JILIN-1 GAOFEN 3B       
1 46454U 20065A   25186.60462263  .00023040  00000+0  48744-3 0  9995
2 46454  97.2815 234.5615 0002571 319.8893  40.2166 15.45138837266265
JILIN-1 GAOFEN 3E       
1 46457U 20065D   25186.58833225  .00016032  00000+0  43509-3 0  9992
2 46457  97.2838 232.6827 0020020 354.1641   5.9368 15.37478706266129
JILIN-1 GAOFEN 3F       
1 46458U 20065E   25186.57854631  .00015027  00000+0  41695-3 0  9993
2 46458  97.2771 230.9656 0020944 339.8748  20.1668 15.36787219266112
JILIN-1 GAOFEN 3G       
1 46459U 20065F   25186.60847277  .00017071  00000+0  44118-3 0  9990
2 46459  97.2883 234.9386 0018842 237.9097 122.0319 15.38997836266193
JILIN-1 GAOFEN 3H       
1 46460U 20065G   25186.57807182  .00016822  00000+0  43998-3 0  9997
2 46460  97.2794 232.1961 0013186 163.9909 196.1756 15.38726195266174
JILIN-1 GAOFEN 3J       
1 46462U 20065J   25186.61086475  .00022026  00000+0  48249-3 0  9995
2 46462  97.2821 234.5061 0003345 329.4682  30.6372 15.44115690266262
HAIYANG-2C              
1 46469U 20066A   25186.58464033 -.00000053  00000+0  25671-4 0  9991
2 46469  65.9973 358.2484 0012127 291.8753  68.1026 13.83374630241550
HJ-2A                   
1 46478U 20067A   25186.53618944  .00000558  00000+0  87276-4 0  9997
2 46478  97.9133 267.4943 0001703 308.4718  51.6339 14.76546414257104
HJ-2B                   
1 46479U 20067B   25186.57227796  .00000589  00000+0  91714-4 0  9999
2 46479  97.9185 268.3080 0002448  81.2906 278.8581 14.76539615257114
GONETS-M 17             
1 46486U 20068A   25186.50366805  .00000035  00000+0  18227-3 0  9999
2 46486  82.4959 203.1481 0024393  73.1039 287.2713 12.42895724216092
GONETS-M 18             
1 46487U 20068B   25186.55172208  .00000006  00000+0 -29180-4 0  9997
2 46487  82.4916 202.3740 0021525  70.1555 290.1842 12.42885472216083
GONETS-M 19             
1 46488U 20068C   25186.60617260  .00000035  00000+0  17801-3 0  9993
2 46488  82.4938 202.7163 0015228  83.9786 276.3028 12.42859453216196
DEKART                  
1 46493U 20068H   25186.53996066  .00008278  00000+0  30924-3 0  9993
2 46493  97.8580 168.9527 0013029  71.8164 288.4491 15.27572169262680
NORBI                   
1 46494U 20068J   25186.54611396  .00009503  00000+0  30782-3 0  9999
2 46494  97.8558 171.7445 0011594  64.0959 296.1475 15.32194002262868
SALSAT                  
1 46495U 20068K   25186.50423724  .00006020  00000+0  25851-3 0  9994
2 46495  97.8610 165.7368 0013039  75.6375 284.6306 15.23030670262473
ICEYE-X6                
1 46497U 20068M   25186.53332961  .00003094  00000+0  24766-3 0  9993
2 46497  98.0657 160.1396 0003153 152.2085 207.9307 15.00967988261165
NETSAT-4                
1 46504U 20068U   25186.49568782  .00010643  00000+0  35845-3 0  9997
2 46504  97.8455 165.7984 0009063 108.7665 251.4559 15.30924455262515
NETSAT-3                
1 46505U 20068V   25186.51358075  .00009961  00000+0  35157-3 0  9990
2 46505  97.8456 164.6969 0008768 117.5876 242.6254 15.29419790262479
NETSAT-1                
1 46506U 20068W   25186.51715366  .00006867  00000+0  28205-3 0  9999
2 46506  97.8485 162.3367 0008040 130.0838 230.1104 15.24522018262312
NETSAT-2                
1 46507U 20068X   25186.49255362  .00011530  00000+0  39248-3 0  9994
2 46507  97.8455 165.2662 0007142 128.5836 231.6044 15.30570472262450
TIANQI-6                
1 46810U 20076D   25186.57270179  .00003070  00000+0  22157-3 0  9993
2 46810  35.0014  10.1990 0011651 357.3375   2.7271 15.03646444256314
KSM1-C                  
1 46906U 20081B   25186.61739143  .00006224  00000+0  29278-3 0  9996
2 46906  36.8952  26.3479 0003319 229.1551 130.8908 15.19262512256301
KSM1-D                  
1 46907U 20081C   25186.59148177  .00005544  00000+0  27003-3 0  9993
2 46907  36.8981  30.3554 0005337 237.2208 122.8024 15.18111767256285
KSM1-A                  
1 46912U 20081H   25186.61904689  .00005924  00000+0  28229-3 0  9993
2 46912  36.8978  26.7678 0004530 298.8961  61.1331 15.18836095256336
R2                      
1 46913U 20081J   25186.61947469  .00004807  00000+0  23129-3 0  9990
2 46913  36.9011  25.4482 0008920 251.7331 108.2446 15.18608680259151
KSM1-B                  
1 46914U 20081K   25186.62301668  .00005520  00000+0  26976-3 0  9993
2 46914  36.9030  30.0977 0007536 255.7324 104.2586 15.17988459259382
GONETS-M 20             
1 47227U 20091A   25186.54279160  .00000039  00000+0  21128-3 0  9998
2 47227  82.5042 157.9050 0019489 214.0900 145.8929 12.42850244208010
GONETS-M 21             
1 47228U 20091B   25186.59841576  .00000022  00000+0  87830-4 0  9995
2 47228  82.4966 156.7956 0013175 227.9162 132.0798 12.42868682208013
GONETS-M 22             
1 47229U 20091C   25186.57074471  .00000031  00000+0  15395-3 0  9992
2 47229  82.5024 157.5460 0020432 208.8641 151.1310 12.42857215207968
CUBEL                   
1 47448U 21006AM  25186.55870578  .00012674  00000+0  41278-3 0  9997
2 47448  97.2868 236.3654 0007236 353.6538   6.4611 15.31950267246514
ASTROCAST-0103          
1 47487U 21006CC  25186.61023054  .00020375  00000+0  39068-3 0  9997
2 47487  97.3020 245.3575 0002806 342.4128  17.7025 15.48032229247050
ASTROCAST-0104          
1 47519U 21006DK  25186.12737968  .00017898  00000+0  36752-3 0  9998
2 47519  97.2943 243.3375 0003394 321.5278  38.5729 15.46064320246935
ARKTIKA-M 1             
1 47719U 21016A   25186.07563059 -.00000044  00000+0  00000+0 0  9992
2 47719  63.1493 105.3820 7119992 268.6832  16.4515  2.00622402 31822
STARLINK-2342           
1 47883U 21021Z   25186.55810672  .00001344  00000+0  10908-3 0  9994
2 47883  53.0564 306.0367 0001192  89.2339 270.8787 15.06406687238394
GRUS-1B                 
1 47934U 21022C   25186.60306524  .00000512  00000+0  48336-4 0  9997
2 47934  97.5833  75.4635 0018688  50.5412 309.7460 14.97800817233992
2021-022F               
1 47937U 21022F   25186.63543862  .00005536  00000+0  21871-3 0  9996
2 47937  97.4217  83.8035 0009783 235.9022 124.1289 15.25874841236743
WILDTRACKCUBE-SIMBA     
1 47941U 21022K   25186.59434093  .00025532  00000+0  51184-3 0  9999
2 47941  97.4200  91.7378 0008436 202.5860 157.5019 15.46665174237216
ELSA-D                  
1 47944U 21022N   25186.57466904  .00347079  49358-4  90754-3 0  9999
2 47944  97.4184 102.9587 0010977 150.5983 209.5912 15.94798616237961
UNISAT-7                
1 47945U 21022P   25186.60843376  .00008140  00000+0  28465-3 0  9995
2 47945  97.4191  85.1905 0009865 225.7650 134.2781 15.29755803236692
2021-022Q               
1 47946U 21022Q   25186.57497806  .00049278  00000+0  64748-3 0  9996
2 47946  97.4204  97.0477 0007688 164.8048 195.3440 15.58330324237587
2021-022X               
1 47953U 21022X   25186.59123991  .00015590  00000+0  40500-3 0  9997
2 47953  97.4179  87.8361 0009280 220.8464 139.2086 15.39000808236728
2021-022AC              
1 47958U 21022AC  25186.57942434  .00019907  00000+0  46695-3 0  9998
2 47958  97.4135  88.7620 0008789 214.8924 145.1748 15.42058449235885
GLOBAL-9                
1 47971U 21023G   25186.56330695  .00013772  00000+0  36050-3 0  9991
2 47971  44.9858  21.3375 0009902 253.3133 106.6668 15.38672882241481
AII-BRAVO               
1 48270U 21034C   25186.43695413  .00003982  00000+0  32882-3 0  9995
2 48270  97.6026 244.2911 0002188  42.3465 317.7927 14.99533326227584
TYVAK-182A              
1 48271U 21034D   25186.56662177  .00004014  00000+0  31336-3 0  9991
2 48271  97.6265 246.5735 0005534  80.0461 280.1388 15.01676792227732
CSS (TIANHE)            
1 48274U 21035A   25186.57715409  .00019735  00000+0  26132-3 0  9997
2 48274  41.4650 269.0236 0013425 225.3420 134.6324 15.57725725239023
TYVAK-0130              
1 48606U 21041BF  25186.41411677  .00006204  00000+0  28894-3 0  9990
2 48606  53.0318 188.3567 0009294 162.2596 197.8725 15.21175563227498
HAIYANG-2D              
1 48621U 21043A   25186.56668440 -.00000034  00000+0  42732-4 0  9991
2 48621  65.9980  87.6674 0007557 268.1660  91.8543 13.83374984208607
2021-050D               
1 48843U 21050D   25186.59307779  .00005164  00000+0  21610-3 0  9992
2 48843  97.3681 264.7346 0005256 300.8298  59.2422 15.23991831226199
BRIK-II                 
1 48876U 21058F   25186.03117501  .00050045  00000+0  45765-3 0  9992
2 48876  60.6613  56.8683 0010682  22.9179 337.2403 15.67411620224373
TYVAK-0173              
1 48892U 21059P   25186.44059010  .00001740  00000+0  23496-3 0  9991
2 48892  95.9884 344.5559 0011275 119.5295 240.7047 14.79810905216927
TUBIN                   
1 48900U 21059X   25186.54853936  .00036048  00000+0  40603-3 0  9999
2 48900  97.6757 357.9276 0004250 135.9001 224.2596 15.62469020224095
MANDRAKE 2 ABLE         
1 48907U 21059AE  25186.39033487  .00011881  00000+0  29748-3 0  9995
2 48907  97.6904 349.1489 0006411 164.9978 195.1458 15.40231272223501
MANDRAKE 2 BAKER        
1 48908U 21059AF  25186.43003468  .00012457  00000+0  29307-3 0  9998
2 48908  97.6904 350.4065 0005941 149.4053 210.7541 15.42108812223575
PACE-1                  
1 48909U 21059AG  25186.42973380  .00018118  00000+0  35821-3 0  9995
2 48909  97.6793 351.1221 0005807 142.5895 217.5759 15.47165544223737
